{
  "type": "FeatureCollection",
  "features": [
    {
      "type": "Feature",
      "properties": {
        "norad_id": 30208,
        "name": "FENGYUN 1C DEB",
        "group": "fengyun-1c-debris",
        "lat": 69.61554563909802,
        "lon": -170.43040245410998,
        "alt_km": 829.9215881199179,
        "timestamp": "2025-12-10T14:53:37.366926+00:00",
        "meta_object_name": "FENGYUN 1C DEB",
        "meta_object_id": "1999-025VR",
        "meta_epoch": "2025-12-09T12:06:48.593376",
        "meta_mean_motion": 14.23516075,
        "meta_eccentricity": 0.00329949,
        "meta_inclination": 98.5618,
        "meta_ra_of_asc_node": 344.5662,
        "meta_arg_of_pericenter": 279.955,
        "meta_mean_anomaly": 233.5835,
        "meta_ephemeris_type": 0,
        "meta_classification_type": "U",
        "meta_norad_cat_id": 30208,
        "meta_element_set_no": 999,
        "meta_rev_at_epoch": 97791,
        "meta_bstar": 0.00085202837,
        "meta_mean_motion_dot": 1.906e-05,
        "meta_mean_motion_ddot": 0,
        "tle_line1": "1 30208U 99025VR  25343.50472909  .00001906  00000+0  85203-3 0  9997",
        "tle_line2": "2 30208  98.5618 344.5662 0032994 279.9550 233.5835 14.23516075977912"
      },
      "geometry": {
        "type": "Point",
        "coordinates": [
          -170.43040245410998,
          69.61554563909802
        ]
      }
    },
    {
      "type": "Feature",
      "properties": {
        "norad_id": 30209,
        "name": "FENGYUN 1C DEB",
        "group": "fengyun-1c-debris",
        "lat": 8.109349420392844,
        "lon": 162.75871430208042,
        "alt_km": 843.1562188013932,
        "timestamp": "2025-12-10T14:53:37.366935+00:00",
        "meta_object_name": "FENGYUN 1C DEB",
        "meta_object_id": "1999-025VS",
        "meta_epoch": "2025-12-09T19:57:55.080000",
        "meta_mean_motion": 14.12896793,
        "meta_eccentricity": 0.00386226,
        "meta_inclination": 98.7138,
        "meta_ra_of_asc_node": 340.7391,
        "meta_arg_of_pericenter": 247.2686,
        "meta_mean_anomaly": 235.4938,
        "meta_ephemeris_type": 0,
        "meta_classification_type": "U",
        "meta_norad_cat_id": 30209,
        "meta_element_set_no": 999,
        "meta_rev_at_epoch": 97165,
        "meta_bstar": 0.0007157103,
        "meta_mean_motion_dot": 1.298e-05,
        "meta_mean_motion_ddot": 0,
        "tle_line1": "1 30209U 99025VS  25343.83188750  .00001298  00000+0  71571-3 0  9999",
        "tle_line2": "2 30209  98.7138 340.7391 0038622 247.2686 235.4938 14.12896793971657"
      },
      "geometry": {
        "type": "Point",
        "coordinates": [
          162.75871430208042,
          8.109349420392844
        ]
      }
    },
    {
      "type": "Feature",
      "properties": {
        "norad_id": 30210,
        "name": "FENGYUN 1C DEB",
        "group": "fengyun-1c-debris",
        "lat": -34.429382992249074,
        "lon": -152.0427051752783,
        "alt_km": 858.9838935484458,
        "timestamp": "2025-12-10T14:53:37.366944+00:00",
        "meta_object_name": "FENGYUN 1C DEB",
        "meta_object_id": "1999-025VT",
        "meta_epoch": "2025-12-10T02:05:15.433152",
        "meta_mean_motion": 14.08258534,
        "meta_eccentricity": 0.00569425,
        "meta_inclination": 99.1907,
        "meta_ra_of_asc_node": 33.7857,
        "meta_arg_of_pericenter": 143.6395,
        "meta_mean_anomaly": 246.9199,
        "meta_ephemeris_type": 0,
        "meta_classification_type": "U",
        "meta_norad_cat_id": 30210,
        "meta_element_set_no": 999,
        "meta_rev_at_epoch": 96720,
        "meta_bstar": 0.00091661211,
        "meta_mean_motion_dot": 1.544e-05,
        "meta_mean_motion_ddot": 0,
        "tle_line1": "1 30210U 99025VT  25344.08698418  .00001544  00000+0  91661-3 0  9992",
        "tle_line2": "2 30210  99.1907  33.7857 0056942 143.6395 246.9199 14.08258534967207"
      },
      "geometry": {
        "type": "Point",
        "coordinates": [
          -152.0427051752783,
          -34.429382992249074
        ]
      }
    },
    {
      "type": "Feature",
      "properties": {
        "norad_id": 30212,
        "name": "FENGYUN 1C DEB",
        "group": "fengyun-1c-debris",
        "lat": -8.14543385742596,
        "lon": 28.57379140840514,
        "alt_km": 866.9447567872558,
        "timestamp": "2025-12-10T14:53:37.366961+00:00",
        "meta_object_name": "FENGYUN 1C DEB",
        "meta_object_id": "1999-025VV",
        "meta_epoch": "2025-12-10T03:40:26.044608",
        "meta_mean_motion": 13.97053024,
        "meta_eccentricity": 0.00968638,
        "meta_inclination": 99.4577,
        "meta_ra_of_asc_node": 209.4602,
        "meta_arg_of_pericenter": 244.4004,
        "meta_mean_anomaly": 114.7122,
        "meta_ephemeris_type": 0,
        "meta_classification_type": "U",
        "meta_norad_cat_id": 30212,
        "meta_element_set_no": 999,
        "meta_rev_at_epoch": 96189,
        "meta_bstar": 0.00042460738,
        "meta_mean_motion_dot": 5.69e-06,
        "meta_mean_motion_ddot": 0,
        "tle_line1": "1 30212U 99025VV  25344.15307922  .00000569  00000+0  42461-3 0  9999",
        "tle_line2": "2 30212  99.4577 209.4602 0096863 244.4004 114.7122 13.97053024961899"
      },
      "geometry": {
        "type": "Point",
        "coordinates": [
          28.57379140840514,
          -8.14543385742596
        ]
      }
    },
    {
      "type": "Feature",
      "properties": {
        "norad_id": 30213,
        "name": "FENGYUN 1C DEB",
        "group": "fengyun-1c-debris",
        "lat": 31.151796104598397,
        "lon": -113.4009469025524,
        "alt_km": 862.0326691719747,
        "timestamp": "2025-12-10T14:53:37.366970+00:00",
        "meta_object_name": "FENGYUN 1C DEB",
        "meta_object_id": "1999-025VW",
        "meta_epoch": "2025-12-10T04:07:10.180704",
        "meta_mean_motion": 14.11551598,
        "meta_eccentricity": 0.0071461,
        "meta_inclination": 99.1219,
        "meta_ra_of_asc_node": 60.5696,
        "meta_arg_of_pericenter": 250.8659,
        "meta_mean_anomaly": 138.2484,
        "meta_ephemeris_type": 0,
        "meta_classification_type": "U",
        "meta_norad_cat_id": 30213,
        "meta_element_set_no": 999,
        "meta_rev_at_epoch": 96479,
        "meta_bstar": 0.0021525783,
        "meta_mean_motion_dot": 3.957e-05,
        "meta_mean_motion_ddot": 0,
        "tle_line1": "1 30213U 99025VW  25344.17164561  .00003957  00000+0  21526-2 0  9994",
        "tle_line2": "2 30213  99.1219  60.5696 0071461 250.8659 138.2484 14.11551598964793"
      },
      "geometry": {
        "type": "Point",
        "coordinates": [
          -113.4009469025524,
          31.151796104598397
        ]
      }
    },
    {
      "type": "Feature",
      "properties": {
        "norad_id": 30214,
        "name": "FENGYUN 1C DEB",
        "group": "fengyun-1c-debris",
        "lat": 2.4797061875165602,
        "lon": -121.85562814495714,
        "alt_km": 800.1721735175579,
        "timestamp": "2025-12-10T14:53:37.366979+00:00",
        "meta_object_name": "FENGYUN 1C DEB",
        "meta_object_id": "1999-025VX",
        "meta_epoch": "2025-12-10T04:08:06.797760",
        "meta_mean_motion": 14.3088652,
        "meta_eccentricity": 0.00210018,
        "meta_inclination": 98.724,
        "meta_ra_of_asc_node": 57.3136,
        "meta_arg_of_pericenter": 52.7162,
        "meta_mean_anomaly": 336.645,
        "meta_ephemeris_type": 0,
        "meta_classification_type": "U",
        "meta_norad_cat_id": 30214,
        "meta_element_set_no": 999,
        "meta_rev_at_epoch": 97530,
        "meta_bstar": 0.002316871,
        "meta_mean_motion_dot": 6.056e-05,
        "meta_mean_motion_ddot": 0,
        "tle_line1": "1 30214U 99025VX  25344.17230090  .00006056  00000+0  23169-2 0  9994",
        "tle_line2": "2 30214  98.7240  57.3136 0021001  52.7162 336.6450 14.30886520975302"
      },
      "geometry": {
        "type": "Point",
        "coordinates": [
          -121.85562814495714,
          2.4797061875165602
        ]
      }
    },
    {
      "type": "Feature",
      "properties": {
        "norad_id": 30217,
        "name": "FENGYUN 1C DEB",
        "group": "fengyun-1c-debris",
        "lat": 12.805326846929441,
        "lon": -33.457459765628364,
        "alt_km": 813.9109242931709,
        "timestamp": "2025-12-10T14:53:37.366988+00:00",
        "meta_object_name": "FENGYUN 1C DEB",
        "meta_object_id": "1999-025WA",
        "meta_epoch": "2025-12-10T04:43:14.054016",
        "meta_mean_motion": 14.24828882,
        "meta_eccentricity": 0.01406545,
        "meta_inclination": 98.4312,
        "meta_ra_of_asc_node": 328.0672,
        "meta_arg_of_pericenter": 107.2158,
        "meta_mean_anomaly": 254.4473,
        "meta_ephemeris_type": 0,
        "meta_classification_type": "U",
        "meta_norad_cat_id": 30217,
        "meta_element_set_no": 999,
        "meta_rev_at_epoch": 98037,
        "meta_bstar": 0.00033199095,
        "meta_mean_motion_dot": 8.17e-06,
        "meta_mean_motion_ddot": 0,
        "tle_line1": "1 30217U 99025WA  25344.19669044  .00000817  00000+0  33199-3 0  9998",
        "tle_line2": "2 30217  98.4312 328.0672 0140654 107.2158 254.4473 14.24828882980377"
      },
      "geometry": {
        "type": "Point",
        "coordinates": [
          -33.457459765628364,
          12.805326846929441
        ]
      }
    }
  ]
}